start=new Date('2021-09-22T00:00:00.000Z').valueOf();
sats=[{"CENTER_NAME":"EARTH","LAUNCH_DATE":"2020-10-06","ECCENTRICITY":"0.00008260","PERIOD":"95.592","MEAN_ELEMENT_THEORY":"SGP4","SITE":"AFETR","OBJECT_TYPE":"PAYLOAD","EPHEMERIS_TYPE":"0","ELEMENT_SET_NO":"999","INCLINATION":"53.0546","OBJECT_NAME":"STARLINK-1735","MEAN_MOTION_DOT":"0.00000336","MEAN_MOTION_DDOT":"0.0000000000000","EPOCH":"2021-09-21T10:16:04.435104","REF_FRAME":"TEME","ARG_OF_PERICENTER":"63.2396","FILE":"3121847","GP_ID":"185157064","MEAN_MOTION":"15.06397077","TIME_SYSTEM":"UTC","SEMIMAJOR_AXIS":"6925.358","PERIAPSIS":"546.650","MEAN_ANOMALY":"296.8678","NORAD_CAT_ID":"46565","CLASSIFICATION_TYPE":"U","TLE_LINE1":"1 46565U 20070AK  21264.42782911  .00000336  00000-0  41416-4 0  9996","DECAY_DATE":null,"REV_AT_EPOCH":"5406","APOAPSIS":"547.795","RCS_SIZE":"LARGE","COUNTRY_CODE":"US","RA_OF_ASC_NODE":"275.0615","OBJECT_ID":"2020-070AK","BSTAR":"0.00004141600000","TLE_LINE2":"2 46565  53.0546 275.0615 0000826  63.2396 296.8678 15.06397077 54068"},{"REF_FRAME":"TEME","EPOCH":"2021-09-21T17:52:32.244096","MEAN_MOTION_DOT":"-0.00000540","MEAN_MOTION_DDOT":"0.0000000000000","ARG_OF_PERICENTER":"67.1333","FILE":"3122258","MEAN_MOTION":"15.06388319","GP_ID":"185189729","OBJECT_TYPE":"PAYLOAD","EPHEMERIS_TYPE":"0","ELEMENT_SET_NO":"999","INCLINATION":"53.0542","OBJECT_NAME":"STARLINK-1740","PERIOD":"95.593","SITE":"AFETR","MEAN_ELEMENT_THEORY":"SGP4","CENTER_NAME":"EARTH","LAUNCH_DATE":"2020-10-06","ECCENTRICITY":"0.00005160","RA_OF_ASC_NODE":"273.7387","COUNTRY_CODE":"US","OBJECT_ID":"2020-070AL","TLE_LINE2":"2 46566  53.0542 273.7387 0000516  67.1333 292.9711 15.06388319 54116","BSTAR":"-0.00001739800000","REV_AT_EPOCH":"5411","APOAPSIS":"547.607","RCS_SIZE":"LARGE","TLE_LINE1":"1 46566U 20070AL  21264.74481764 -.00000540  00000-0 -17398-4 0  9995","DECAY_DATE":null,"PERIAPSIS":"546.892","TIME_SYSTEM":"UTC","SEMIMAJOR_AXIS":"6925.384","MEAN_ANOMALY":"292.9711","CLASSIFICATION_TYPE":"U","NORAD_CAT_ID":"46566"},{"OBJECT_NAME":"STARLINK-1741","ELEMENT_SET_NO":"999","INCLINATION":"53.0543","EPHEMERIS_TYPE":"0","OBJECT_TYPE":"PAYLOAD","GP_ID":"185158547","MEAN_MOTION":"15.06400329","FILE":"3121847","ARG_OF_PERICENTER":"78.1533","MEAN_MOTION_DOT":"0.00000668","MEAN_MOTION_DDOT":"0.0000000000000","EPOCH":"2021-09-21T07:26:13.346016","REF_FRAME":"TEME","ECCENTRICITY":"0.00008070","LAUNCH_DATE":"2020-10-06","CENTER_NAME":"EARTH","MEAN_ELEMENT_THEORY":"SGP4","SITE":"AFETR","PERIOD":"95.592","RCS_SIZE":"LARGE","APOAPSIS":"547.771","REV_AT_EPOCH":"5405","TLE_LINE2":"2 46567  53.0543 275.6911 0000807  78.1533 281.9547 15.06400329 54053","BSTAR":"0.00006371600000","OBJECT_ID":"2020-070AM","COUNTRY_CODE":"US","RA_OF_ASC_NODE":"275.6911","NORAD_CAT_ID":"46567","CLASSIFICATION_TYPE":"U","MEAN_ANOMALY":"281.9547","SEMIMAJOR_AXIS":"6925.348","TIME_SYSTEM":"UTC","PERIAPSIS":"546.654","DECAY_DATE":null,"TLE_LINE1":"1 46567U 20070AM  21264.30987669  .00000668  00000-0  63716-4 0  9997"},{"OBJECT_NAME":"STARLINK-1743","ELEMENT_SET_NO":"999","INCLINATION":"53.0539","EPHEMERIS_TYPE":"0","OBJECT_TYPE":"PAYLOAD","MEAN_MOTION":"15.29183604","GP_ID":"185135017","FILE":"3121804","ARG_OF_PERICENTER":"276.5285","EPOCH":"2021-09-21T11:24:54.923616","REF_FRAME":"TEME","MEAN_MOTION_DOT":"0.00104648","MEAN_MOTION_DDOT":"0.0000000000000","ECCENTRICITY":"0.00078930","LAUNCH_DATE":"2020-10-06","CENTER_NAME":"EARTH","SITE":"AFETR","MEAN_ELEMENT_THEORY":"SGP4","PERIOD":"94.168","RCS_SIZE":"LARGE","APOAPSIS":"483.665","REV_AT_EPOCH":"5391","BSTAR":"0.00360420000000","TLE_LINE2":"2 46568  53.0539 287.6899 0007893 276.5285  83.4815 15.29183604 53913","OBJECT_ID":"2020-070AN","RA_OF_ASC_NODE":"287.6899","COUNTRY_CODE":"US","CLASSIFICATION_TYPE":"U","NORAD_CAT_ID":"46568","MEAN_ANOMALY":"83.4815","PERIAPSIS":"472.842","SEMIMAJOR_AXIS":"6856.389","TIME_SYSTEM":"UTC","DECAY_DATE":null,"TLE_LINE1":"1 46568U 20070AN  21264.47563569  .00104648  00000-0  36042-2 0  9998"},{"MEAN_ANOMALY":"291.3676","NORAD_CAT_ID":"46569","CLASSIFICATION_TYPE":"U","TIME_SYSTEM":"UTC","SEMIMAJOR_AXIS":"6925.372","PERIAPSIS":"546.681","DECAY_DATE":null,"TLE_LINE1":"1 46569U 20070AP  21264.72270426 -.00000853  00000-0 -38382-4 0  9990","APOAPSIS":"547.793","RCS_SIZE":"LARGE","REV_AT_EPOCH":"5411","OBJECT_ID":"2020-070AP","TLE_LINE2":"2 46569  53.0538 273.8262 0000803  68.7399 291.3676 15.06392476 54117","BSTAR":"-0.00003838200000","COUNTRY_CODE":"US","RA_OF_ASC_NODE":"273.8262","LAUNCH_DATE":"2020-10-06","ECCENTRICITY":"0.00008030","CENTER_NAME":"EARTH","SITE":"AFETR","MEAN_ELEMENT_THEORY":"SGP4","PERIOD":"95.593","ELEMENT_SET_NO":"999","INCLINATION":"53.0538","OBJECT_NAME":"STARLINK-1747","OBJECT_TYPE":"PAYLOAD","EPHEMERIS_TYPE":"0","FILE":"3122258","GP_ID":"185188978","MEAN_MOTION":"15.06392476","MEAN_MOTION_DOT":"-0.00000853","MEAN_MOTION_DDOT":"0.0000000000000","EPOCH":"2021-09-21T17:20:41.648064","REF_FRAME":"TEME","ARG_OF_PERICENTER":"68.7399"},{"MEAN_ELEMENT_THEORY":"SGP4","SITE":"AFETR","PERIOD":"95.592","ECCENTRICITY":"0.00010400","LAUNCH_DATE":"2020-10-06","CENTER_NAME":"EARTH","GP_ID":"185189232","MEAN_MOTION":"15.06404429","FILE":"3122258","ARG_OF_PERICENTER":"78.0744","MEAN_MOTION_DOT":"0.00001109","MEAN_MOTION_DDOT":"0.0000000000000","EPOCH":"2021-09-21T18:19:03.167904","REF_FRAME":"TEME","OBJECT_NAME":"STARLINK-1748","ELEMENT_SET_NO":"999","INCLINATION":"53.0528","EPHEMERIS_TYPE":"0","OBJECT_TYPE":"PAYLOAD","DECAY_DATE":null,"TLE_LINE1":"1 46570U 20070AQ  21264.76323111  .00001109  00000-0  93298-4 0  9996","NORAD_CAT_ID":"46570","CLASSIFICATION_TYPE":"U","MEAN_ANOMALY":"282.0361","TIME_SYSTEM":"UTC","SEMIMAJOR_AXIS":"6925.335","PERIAPSIS":"546.480","BSTAR":"0.00009329800000","TLE_LINE2":"2 46570  53.0528 273.6359 0001040  78.0744 282.0361 15.06404429 54115","OBJECT_ID":"2020-070AQ","COUNTRY_CODE":"US","RA_OF_ASC_NODE":"273.6359","RCS_SIZE":"LARGE","APOAPSIS":"547.920","REV_AT_EPOCH":"5411"},{"COUNTRY_CODE":"US","RA_OF_ASC_NODE":"273.8195","OBJECT_ID":"2020-070AR","TLE_LINE2":"2 46571  53.0533 273.8195 0000848  70.9859 289.1221 15.06397129 54116","BSTAR":"0.00007877600000","REV_AT_EPOCH":"5411","APOAPSIS":"547.810","RCS_SIZE":"LARGE","TLE_LINE1":"1 46571U 20070AR  21264.72638913  .00000892  00000-0  78776-4 0  9994","DECAY_DATE":null,"TIME_SYSTEM":"UTC","SEMIMAJOR_AXIS":"6925.357","PERIAPSIS":"546.635","MEAN_ANOMALY":"289.1221","NORAD_CAT_ID":"46571","CLASSIFICATION_TYPE":"U","MEAN_MOTION_DDOT":"0.0000000000000","MEAN_MOTION_DOT":"0.00000892","EPOCH":"2021-09-21T17:26:00.020832","REF_FRAME":"TEME","ARG_OF_PERICENTER":"70.9859","FILE":"3122258","GP_ID":"185189980","MEAN_MOTION":"15.06397129","OBJECT_TYPE":"PAYLOAD","EPHEMERIS_TYPE":"0","INCLINATION":"53.0533","ELEMENT_SET_NO":"999","OBJECT_NAME":"STARLINK-1753","PERIOD":"95.592","SITE":"AFETR","MEAN_ELEMENT_THEORY":"SGP4","CENTER_NAME":"EARTH","LAUNCH_DATE":"2020-10-06","ECCENTRICITY":"0.00008480"},{"ARG_OF_PERICENTER":"94.6573","REF_FRAME":"TEME","EPOCH":"2021-09-21T11:54:15.966432","MEAN_MOTION_DOT":"-0.00000662","MEAN_MOTION_DDOT":"0.0000000000000","MEAN_MOTION":"15.06394396","GP_ID":"185157476","FILE":"3121847","EPHEMERIS_TYPE":"0","OBJECT_TYPE":"PAYLOAD","OBJECT_NAME":"STARLINK-1531","INCLINATION":"53.0550","ELEMENT_SET_NO":"999","PERIOD":"95.592","SITE":"AFETR","MEAN_ELEMENT_THEORY":"SGP4","CENTER_NAME":"EARTH","ECCENTRICITY":"0.00009510","LAUNCH_DATE":"2020-10-06","RA_OF_ASC_NODE":"294.8500","COUNTRY_CODE":"US","TLE_LINE2":"2 46572  53.0550 294.8500 0000951  94.6573 265.4525 15.06394396 53790","BSTAR":"-0.00002554900000","OBJECT_ID":"2020-070AS","REV_AT_EPOCH":"5379","RCS_SIZE":"LARGE","APOAPSIS":"547.889","TLE_LINE1":"1 46572U 20070AS  21264.49601813 -.00000662  00000-0 -25549-4 0  9995","DECAY_DATE":null,"PERIAPSIS":"546.572","TIME_SYSTEM":"UTC","SEMIMAJOR_AXIS":"6925.366","CLASSIFICATION_TYPE":"U","NORAD_CAT_ID":"46572","MEAN_ANOMALY":"265.4525"},{"ECCENTRICITY":"0.00010070","LAUNCH_DATE":"2020-10-06","CENTER_NAME":"EARTH","SITE":"AFETR","MEAN_ELEMENT_THEORY":"SGP4","PERIOD":"95.593","OBJECT_NAME":"STARLINK-1650","INCLINATION":"53.0536","ELEMENT_SET_NO":"999","EPHEMERIS_TYPE":"0","OBJECT_TYPE":"PAYLOAD","MEAN_MOTION":"15.06391471","GP_ID":"185188481","FILE":"3122258","ARG_OF_PERICENTER":"77.1569","EPOCH":"2021-09-21T17:43:54.326208","REF_FRAME":"TEME","MEAN_MOTION_DOT":"0.00000678","MEAN_MOTION_DDOT":"0.0000000000000","CLASSIFICATION_TYPE":"U","NORAD_CAT_ID":"46573","MEAN_ANOMALY":"282.9532","PERIAPSIS":"546.542","SEMIMAJOR_AXIS":"6925.375","TIME_SYSTEM":"UTC","DECAY_DATE":null,"TLE_LINE1":"1 46573U 20070AT  21264.73882322  .00000678  00000-0  64403-4 0  9996","RCS_SIZE":"LARGE","APOAPSIS":"547.937","REV_AT_EPOCH":"5404","BSTAR":"0.00006440300000","TLE_LINE2":"2 46573  53.0536 278.7529 0001007  77.1569 282.9532 15.06391471 54043","OBJECT_ID":"2020-070AT","RA_OF_ASC_NODE":"278.7529","COUNTRY_CODE":"US"},{"LAUNCH_DATE":"2020-10-06","ECCENTRICITY":"0.00010070","CENTER_NAME":"EARTH","MEAN_ELEMENT_THEORY":"SGP4","SITE":"AFETR","PERIOD":"95.592","ELEMENT_SET_NO":"999","INCLINATION":"53.0538","OBJECT_NAME":"STARLINK-1660","OBJECT_TYPE":"PAYLOAD","EPHEMERIS_TYPE":"0","FILE":"3121847","GP_ID":"185157796","MEAN_MOTION":"15.06401377","MEAN_MOTION_DDOT":"0.0000000000000","MEAN_MOTION_DOT":"0.00000748","REF_FRAME":"TEME","EPOCH":"2021-09-21T07:49:26.547744","ARG_OF_PERICENTER":"83.2811","MEAN_ANOMALY":"276.8293","NORAD_CAT_ID":"46574","CLASSIFICATION_TYPE":"U","SEMIMAJOR_AXIS":"6925.344","TIME_SYSTEM":"UTC","PERIAPSIS":"546.512","DECAY_DATE":null,"TLE_LINE1":"1 46574U 20070AU  21264.32600171  .00000748  00000-0  69107-4 0  9996","APOAPSIS":"547.907","RCS_SIZE":"LARGE","REV_AT_EPOCH":"5398","OBJECT_ID":"2020-070AU","BSTAR":"0.00006910700000","TLE_LINE2":"2 46574  53.0538 280.6162 0001007  83.2811 276.8293 15.06401377 53984","COUNTRY_CODE":"US","RA_OF_ASC_NODE":"280.6162"}];
